STARLINK-36326          
1 68519U 26068M   26164.39862370  .00027935  00000+0  83463-3 0  9990
2 68519  53.1597  42.9226 0001295  88.0819 272.0332 15.34407750 11622
STARLINK-37126          
1 68520U 26068N   26164.38810170  .00025348  00000+0  75868-3 0  9998
2 68520  53.1610  42.8586 0001165  65.4825 294.6299 15.34405030 11621
STARLINK-36347          
1 68521U 26068P   26163.98357017  .00025729  00000+0  87744-3 0  9999
2 68521  53.1602  46.7263 0001297  93.4882 266.6267 15.30213919 11531
STARLINK-36322          
1 68522U 26068Q   26164.40072231  .00017606  00000+0  53091-3 0  9993
2 68522  53.1601  42.9303 0001280  86.7929 273.3220 15.34404030 11627
STARLINK-37208          
1 68523U 26068R   26163.98675972  .00028282  00000+0  84488-3 0  9993
2 68523  53.1605  44.6088 0000794 101.3907 258.7185 15.34405972 11566
STARLINK-36302          
1 68524U 26068S   26163.95108400  .00037075  00000+0  11027-2 0  9996
2 68524  53.1592  45.1091 0001121  82.0695 278.0435 15.34409482 11558
STARLINK-36311          
1 68525U 26068T   26163.94898113  .00031161  00000+0  92922-3 0  9997
2 68525  53.1594  45.0949 0001173  96.6544 263.4592 15.34411273 11556
STARLINK-37178          
1 68526U 26068U   26164.38858807  .00073940  00000+0  13235-2 0  9993
2 68526  53.1606  42.1528 0001326  93.8942 266.2219 15.49339011 11623
STARLINK-37248          
1 68527U 26068V   26163.94629015  .00033930  00000+0  10103-2 0  9998
2 68527  53.1591  42.8848 0001124  87.4460 272.6671 15.34416365 11589
STARLINK-37241          
1 68528U 26068W   26164.38706000  .00016318  00000+0  56175-3 0  9999
2 68528  53.1613  44.9778 0001187  97.0002 263.1134 15.30205768 11597
STARLINK-37244          
1 68529U 26068X   26164.61296996  .00044779  00000+0  13292-2 0  9998
2 68529  53.1590  42.1309 0001583  78.6563 281.4617 15.34383002 11657
STARLINK-36285          
1 68530U 26068Y   26163.99201441  .00021862  00000+0  74769-3 0  9996
2 68530  53.1607  46.7754 0001552  97.9183 262.1994 15.30217025 11538
STARLINK-36294          
1 68531U 26068Z   26164.38073587  .00019876  00000+0  68120-3 0  9995
2 68531  53.1601  44.9386 0001287  95.6347 264.4801 15.30209560 11599
STARLINK-36249          
1 68532U 26068AA  26163.89436157  .00020704  00000+0  62239-3 0  9994
2 68532  53.1599  45.4689 0001580 113.2568 246.8601 15.34391232 11545
STARLINK-36252          
1 68533U 26068AB  26163.95318762  .00021979  00000+0  65948-3 0  9998
2 68533  53.1593  45.1131 0001028  85.9741 274.1379 15.34412483 11553
STARLINK-36299          
1 68534U 26068AC  26163.95529145  .00025421  00000+0  76053-3 0  9993
2 68534  53.1590  45.1324 0001073  89.3542 270.7584 15.34417429 11557
STARLINK-37234          
1 68535U 26068AD  26164.38945456  .00023724  00000+0  43323-3 0  9997
2 68535  53.1602  42.1537 0001031  82.0843 278.0283 15.49315246 11639
STARLINK-37173          
1 68536U 26068AE  26164.38591799  .00072022  00000+0  12901-2 0  9997
2 68536  53.1603  42.1346 0001310  89.2022 270.9137 15.49330616 11634
STARLINK-37326          
1 68542U 26070A   26164.62520448  .00019563  00000+0  58862-3 0  9995
2 68542  53.1607 276.2160 0001364  77.7206 282.3949 15.34399366 11251
STARLINK-36308          
1 68543U 26070B   26164.62309844  .00042959  00000+0  12752-2 0  9993
2 68543  53.1606 276.2039 0001239  82.2371 277.8773 15.34402098 11252
STARLINK-37263          
1 68544U 26070C   26164.55375264  .00024049  00000+0  72081-3 0  9997
2 68544  53.1600 276.4842 0001441  84.1579 275.9588 15.34391760 11242
STARLINK-37289          
1 68545U 26070D   26164.62099504  .00037199  00000+0  11066-2 0  9991
2 68545  53.1594 276.1944 0001101  97.7666 262.3462 15.34401284 11250
STARLINK-37290          
1 68546U 26070E   26164.55164743  .00016497  00000+0  49840-3 0  9992
2 68546  53.1588 276.4588 0001266 101.3213 258.7932 15.34394069 11245
STARLINK-37245          
1 68547U 26070F   26164.61047529  .00030221  00000+0  90225-3 0  9996
2 68547  53.1594 276.1264 0001280 109.8652 250.2489 15.34390257 11257
STARLINK-37145          
1 68548U 26070G   26164.54954117 -.00316965  00000+0 -97809-2 0  9997
2 68548  53.1596 276.4567 0003287 158.1362 201.9781 15.34354746 11243
STARLINK-36204          
1 68549U 26070H   26164.60837436  .00027632  00000+0  82567-3 0  9993
2 68549  53.1590 276.1138 0001115  92.6681 267.4450 15.34410403 11257
STARLINK-36304          
1 68550U 26070J   26164.60416380  .00030823  00000+0  92021-3 0  9998
2 68550  53.1599 276.0868 0001363  84.6218 275.4940 15.34380475 11257
STARLINK-37288          
1 68551U 26070K   26164.60205584  .00042377  00000+0  12580-2 0  9999
2 68551  53.1593 276.0740 0001576 100.3608 259.7572 15.34407554 11250
STARLINK-37295          
1 68552U 26070L   26164.60626667  .00026322  00000+0  78773-3 0  9998
2 68552  53.1596 276.1026 0001560  93.1456 266.9726 15.34388159 11255
STARLINK-37254          
1 68553U 26070M   26164.59574374  .00025969  00000+0  77693-3 0  9990
2 68553  53.1588 276.0284 0001074  94.1955 265.9171 15.34406025 11253
STARLINK-37255          
1 68554U 26070N   26164.59363957  .00024579  00000+0  73602-3 0  9996
2 68554  53.1591 276.0187 0001216  97.5728 262.5413 15.34407083 11250
STARLINK-37146          
1 68555U 26070P   26164.59784930  .00026026  00000+0  77873-3 0  9998
2 68555  53.1595 276.0408 0001189  97.8001 262.3137 15.34399808 11253
STARLINK-37144          
1 68556U 26070Q   26164.58943449  .00021338  00000+0  64124-3 0  9996
2 68556  53.1591 275.9796 0001416  69.3414 290.7740 15.34381234 11252
STARLINK-37210          
1 68557U 26070R   26164.59153662  .00033330  00000+0  99316-3 0  9994
2 68557  53.1597 275.9990 0001382  96.4329 263.6831 15.34401703 11257
STARLINK-37227          
1 68558U 26070S   26164.58732881  .00021744  00000+0  65316-3 0  9999
2 68558  53.1595 275.9773 0001188  75.8290 284.2844 15.34382497 11258
STARLINK-37294          
1 68559U 26070T   26164.58522978  .00023977  00000+0  71877-3 0  9993
2 68559  53.1600 275.9653 0001155  83.8725 276.2410 15.34388248 11259
STARLINK-37291          
1 68560U 26070U   26164.58311813  .00027375  00000+0  81812-3 0  9995
2 68560  53.1605 275.9530 0001128  73.7748 286.3379 15.34410025 11258
STARLINK-37114          
1 68561U 26070V   26164.58101809  .00021736  00000+0  65268-3 0  9990
2 68561  53.1602 275.9339 0001282  87.1236 272.9913 15.34395382 11258
STARLINK-37233          
1 68562U 26070W   26164.57680019  .00024607  00000+0  73680-3 0  9992
2 68562  53.1603 275.8847 0001633 142.8826 217.2289 15.34409268 11254
STARLINK-36238          
1 68563U 26070X   26164.57891334  .00023421  00000+0  70206-3 0  9991
2 68563  53.1599 275.9186 0001320  64.2717 295.8422 15.34403671 11258
STARLINK-37008          
1 68564U 26070Y   26164.57469036  .00043264  00000+0  12834-2 0  9991
2 68564  53.1586 275.8712 0001297 143.0867 217.0226 15.34421369 11256
STARLINK-37161          
1 68565U 26070Z   26164.57259644  .00026206  00000+0  78393-3 0  9994
2 68565  53.1607 275.8624 0001293  85.8846 274.2305 15.34404500 11250
STARLINK-37212          
1 68566U 26070AA  26164.57049528  .00032830  00000+0  97828-3 0  9997
2 68566  53.1606 275.8616 0001125  79.8727 280.2402 15.34408426 11252
STARLINK-37261          
1 68567U 26070AB  26164.63352671  .00029762  00000+0  88818-3 0  9990
2 68567  53.1605 275.5301 0001125  78.0817 282.0311 15.34410913 11265
STARLINK-37283          
1 68568U 26070AC  26164.62940725  .00023722  00000+0  71184-3 0  9991
2 68568  53.1600 276.2407 0000996  82.1855 277.9261 15.34362546 11253
STARLINK-37256          
1 68569U 26070AD  26164.63142845  .00024207  00000+0  72525-3 0  9999
2 68569  53.1609 275.5530 0001117  70.2838 289.8285 15.34400249 11269
STARLINK-37228          
1 68570U 26070AE  26164.62730922  .00022569  00000+0  67726-3 0  9995
2 68570  53.1604 276.2381 0001182  80.8949 279.2187 15.34392040 11252
STARLINK-37135          
1 68602U 26073A   26164.53512193  .00018514  00000+0  57457-3 0  9997
2 68602  97.2842   3.9469 0001577  90.8531 269.2892 15.33434968 10570
STARLINK-37189          
1 68603U 26073B   26164.54872314  .00011661  00000+0  36274-3 0  9993
2 68603  97.2843   3.9277 0001009 117.7076 242.4269 15.33464341 10571
STARLINK-37130          
1 68604U 26073C   26164.55417924  .00020229  00000+0  62901-3 0  9993
2 68604  97.2837   3.9206 0002637  96.1104 264.0439 15.33353571 10578
STARLINK-37131          
1 68605U 26073D   26164.55687748  .00014641  00000+0  45505-3 0  9999
2 68605  97.2844   3.9172 0001585  87.7667 272.3757 15.33438113 10571
STARLINK-37253          
1 68606U 26073E   26164.57320976  .00021423  00000+0  66357-3 0  9993
2 68606  97.2844   4.0498 0001206  55.7559 304.3798 15.33467151 10586
STARLINK-37246          
1 68607U 26073F   26164.50249735  .00020651  00000+0  64012-3 0  9998
2 68607  97.2835   3.9893 0001729  94.8122 265.3318 15.33449782 10577
STARLINK-37243          
1 68608U 26073G   26164.51881506  .00029556  00000+0  91403-3 0  9995
2 68608  97.2833   3.9749 0002195  80.0823 280.0667 15.33451504 10575
STARLINK-37250          
1 68609U 26073H   26164.55959488  .00021392  00000+0  66326-3 0  9991
2 68609  97.2840   3.9157 0001827  94.9406 265.2046 15.33435073 10578
STARLINK-37105          
1 68610U 26073J   26164.51337491  .00021026  00000+0  65171-3 0  9994
2 68610  97.2844   3.9768 0001763  83.8773 276.2671 15.33448075 10577
STARLINK-37177          
1 68611U 26073K   26164.52696878  .00020891  00000+0  64762-3 0  9997
2 68611  97.2838   3.9611 0001857  93.0308 267.1147 15.33445718 10577
STARLINK-36386          
1 68612U 26073L   26164.54330139  .00064171  00000+0  19727-2 0  9994
2 68612  97.2843   3.9376 0002521 103.2148 256.9376 15.33451014 10573
STARLINK-36187          
1 68613U 26073M   26164.56231591  .00011943  00000+0  37170-3 0  9991
2 68613  97.2843   4.0621 0001544  89.7802 270.3618 15.33442908 10580
